HAWK-A                  
1 43765U 18099H   26068.67628545  .00008617  00000+0  36104-3 0  9995
2 43765  97.4051 122.2425 0034260 275.5523  84.1807 15.23231043397949
STARLINK-3700           
1 51956U 22025A   26068.16489539 -.00000766  00000+0 -14216-4 0  9992
2 51956  53.1593  15.8755 0001295  94.7722 265.3427 15.29350924221096
